[{"OBJECT_NAME":"ONEWEB-0643","OBJECT_ID":"2023-029M","EPOCH":"2026-03-05T05:50:23.087328","MEAN_MOTION":13.14502247,"ECCENTRICITY":0.00021986,"INCLINATION":87.899,"RA_OF_ASC_NODE":310.4774,"ARG_OF_PERICENTER":93.321,"MEAN_ANOMALY":266.8171,"EPHEMERIS_TYPE":0,"CLASSIFICATION_TYPE":"U","NORAD_CAT_ID":55807,"ELEMENT_SET_NO":999,"REV_AT_EPOCH":14573,"BSTAR":-0.00049639116,"MEAN_MOTION_DOT":-1.71e-6,"MEAN_MOTION_DDOT":0},{"OBJECT_NAME":"ONEWEB-0644","OBJECT_ID":"2023-029N","EPOCH":"2026-03-05T05:23:17.791872","MEAN_MOTION":13.19726344,"ECCENTRICITY":0.00019316,"INCLINATION":87.9227,"RA_OF_ASC_NODE":325.6972,"ARG_OF_PERICENTER":89.539,"MEAN_ANOMALY":270.5964,"EPHEMERIS_TYPE":0,"CLASSIFICATION_TYPE":"U","NORAD_CAT_ID":55808,"ELEMENT_SET_NO":999,"REV_AT_EPOCH":14519,"BSTAR":0.00030130332,"MEAN_MOTION_DOT":1.34e-6,"MEAN_MOTION_DDOT":0},{"OBJECT_NAME":"ONEWEB-0645","OBJECT_ID":"2023-029P","EPOCH":"2026-03-05T05:55:07.506624","MEAN_MOTION":13.19725009,"ECCENTRICITY":0.00016136,"INCLINATION":87.9229,"RA_OF_ASC_NODE":325.6854,"ARG_OF_PERICENTER":100.3956,"MEAN_ANOMALY":259.7359,"EPHEMERIS_TYPE":0,"CLASSIFICATION_TYPE":"U","NORAD_CAT_ID":55809,"ELEMENT_SET_NO":999,"REV_AT_EPOCH":14519,"BSTAR":9.9266255e-5,"MEAN_MOTION_DOT":5.3e-7,"MEAN_MOTION_DDOT":0},{"OBJECT_NAME":"ONEWEB-0646","OBJECT_ID":"2023-029Q","EPOCH":"2026-03-05T04:30:57.498336","MEAN_MOTION":13.19727272,"ECCENTRICITY":0.00018538,"INCLINATION":87.9237,"RA_OF_ASC_NODE":325.6962,"ARG_OF_PERICENTER":88.143,"MEAN_ANOMALY":271.9915,"EPHEMERIS_TYPE":0,"CLASSIFICATION_TYPE":"U","NORAD_CAT_ID":55810,"ELEMENT_SET_NO":999,"REV_AT_EPOCH":14517,"BSTAR":9.480891e-5,"MEAN_MOTION_DOT":5.1e-7,"MEAN_MOTION_DDOT":0},{"OBJECT_NAME":"ONEWEB-0648","OBJECT_ID":"2023-029R","EPOCH":"2026-03-05T05:04:42.837888","MEAN_MOTION":13.145017,"ECCENTRICITY":0.00017867,"INCLINATION":87.8996,"RA_OF_ASC_NODE":310.4483,"ARG_OF_PERICENTER":114.4877,"MEAN_ANOMALY":245.6439,"EPHEMERIS_TYPE":0,"CLASSIFICATION_TYPE":"U","NORAD_CAT_ID":55811,"ELEMENT_SET_NO":999,"REV_AT_EPOCH":14573,"BSTAR":0.00077023184,"MEAN_MOTION_DOT":2.98e-6,"MEAN_MOTION_DDOT":0},{"OBJECT_NAME":"ONEWEB-0649","OBJECT_ID":"2023-029S","EPOCH":"2026-03-05T05:07:21.101088","MEAN_MOTION":13.19725207,"ECCENTRICITY":0.00016254,"INCLINATION":87.9238,"RA_OF_ASC_NODE":325.6882,"ARG_OF_PERICENTER":90.3779,"MEAN_ANOMALY":269.754,"EPHEMERIS_TYPE":0,"CLASSIFICATION_TYPE":"U","NORAD_CAT_ID":55812,"ELEMENT_SET_NO":999,"REV_AT_EPOCH":14521,"BSTAR":0.000157931,"MEAN_MOTION_DOT":7.6e-7,"MEAN_MOTION_DDOT":0},{"OBJECT_NAME":"ONEWEB-0650","OBJECT_ID":"2023-029T","EPOCH":"2026-03-05T05:00:31.915008","MEAN_MOTION":13.1972747,"ECCENTRICITY":0.0001907,"INCLINATION":87.9237,"RA_OF_ASC_NODE":325.6921,"ARG_OF_PERICENTER":93.2027,"MEAN_ANOMALY":266.9324,"EPHEMERIS_TYPE":0,"CLASSIFICATION_TYPE":"U","NORAD_CAT_ID":55813,"ELEMENT_SET_NO":999,"REV_AT_EPOCH":14518,"BSTAR":0.00016400984,"MEAN_MOTION_DOT":7.9e-7,"MEAN_MOTION_DDOT":0},{"OBJECT_NAME":"ONEWEB-0652","OBJECT_ID":"2023-029U","EPOCH":"2026-03-05T04:37:18.717600","MEAN_MOTION":13.14502498,"ECCENTRICITY":0.00016259,"INCLINATION":87.899,"RA_OF_ASC_NODE":310.4676,"ARG_OF_PERICENTER":74.4768,"MEAN_ANOMALY":285.6541,"EPHEMERIS_TYPE":0,"CLASSIFICATION_TYPE":"U","NORAD_CAT_ID":55814,"ELEMENT_SET_NO":999,"REV_AT_EPOCH":14570,"BSTAR":0.00032475515,"MEAN_MOTION_DOT":1.33e-6,"MEAN_MOTION_DDOT":0},{"OBJECT_NAME":"ONEWEB-0653","OBJECT_ID":"2023-029V","EPOCH":"2026-03-05T04:14:28.331520","MEAN_MOTION":13.14502505,"ECCENTRICITY":0.00014768,"INCLINATION":87.8999,"RA_OF_ASC_NODE":310.4611,"ARG_OF_PERICENTER":77.2214,"MEAN_ANOMALY":282.9081,"EPHEMERIS_TYPE":0,"CLASSIFICATION_TYPE":"U","NORAD_CAT_ID":55815,"ELEMENT_SET_NO":999,"REV_AT_EPOCH":14573,"BSTAR":-0.00030924273,"MEAN_MOTION_DOT":-1.02e-6,"MEAN_MOTION_DDOT":0},{"OBJECT_NAME":"ONEWEB-0654","OBJECT_ID":"2023-029W","EPOCH":"2026-03-05T04:07:37.211808","MEAN_MOTION":13.14502476,"ECCENTRICITY":0.00015704,"INCLINATION":87.899,"RA_OF_ASC_NODE":310.4619,"ARG_OF_PERICENTER":67.6535,"MEAN_ANOMALY":292.4761,"EPHEMERIS_TYPE":0,"CLASSIFICATION_TYPE":"U","NORAD_CAT_ID":55816,"ELEMENT_SET_NO":999,"REV_AT_EPOCH":14575,"BSTAR":-0.00032169897,"MEAN_MOTION_DOT":-1.06e-6,"MEAN_MOTION_DDOT":0},{"OBJECT_NAME":"ONEWEB-0656","OBJECT_ID":"2023-029X","EPOCH":"2026-03-05T04:33:37.029024","MEAN_MOTION":13.20772327,"ECCENTRICITY":0.00015041,"INCLINATION":87.9179,"RA_OF_ASC_NODE":295.193,"ARG_OF_PERICENTER":70.2017,"MEAN_ANOMALY":289.9278,"EPHEMERIS_TYPE":0,"CLASSIFICATION_TYPE":"U","NORAD_CAT_ID":55817,"ELEMENT_SET_NO":999,"REV_AT_EPOCH":14742,"BSTAR":0.00011507971,"MEAN_MOTION_DOT":6.0e-7,"MEAN_MOTION_DDOT":0},{"OBJECT_NAME":"ONEWEB-0657","OBJECT_ID":"2023-029Y","EPOCH":"2026-03-05T04:53:43.705248","MEAN_MOTION":13.19725882,"ECCENTRICITY":0.00022643,"INCLINATION":87.9236,"RA_OF_ASC_NODE":325.6922,"ARG_OF_PERICENTER":67.2707,"MEAN_ANOMALY":292.8665,"EPHEMERIS_TYPE":0,"CLASSIFICATION_TYPE":"U","NORAD_CAT_ID":55818,"ELEMENT_SET_NO":999,"REV_AT_EPOCH":14519,"BSTAR":0.00027820394,"MEAN_MOTION_DOT":1.24e-6,"MEAN_MOTION_DDOT":0},{"OBJECT_NAME":"ONEWEB-0658","OBJECT_ID":"2023-029Z","EPOCH":"2026-03-05T04:46:54.098400","MEAN_MOTION":13.19725954,"ECCENTRICITY":0.00019633,"INCLINATION":87.9245,"RA_OF_ASC_NODE":325.6599,"ARG_OF_PERICENTER":90.6641,"MEAN_ANOMALY":269.4716,"EPHEMERIS_TYPE":0,"CLASSIFICATION_TYPE":"U","NORAD_CAT_ID":55819,"ELEMENT_SET_NO":999,"REV_AT_EPOCH":14520,"BSTAR":0.00029957883,"MEAN_MOTION_DOT":1.33e-6,"MEAN_MOTION_DDOT":0},{"OBJECT_NAME":"ONEWEB-0660","OBJECT_ID":"2023-029AA","EPOCH":"2026-03-05T05:25:16.227264","MEAN_MOTION":13.14503342,"ECCENTRICITY":0.00014612,"INCLINATION":87.8998,"RA_OF_ASC_NODE":310.4374,"ARG_OF_PERICENTER":95.6079,"MEAN_ANOMALY":264.5217,"EPHEMERIS_TYPE":0,"CLASSIFICATION_TYPE":"U","NORAD_CAT_ID":55820,"ELEMENT_SET_NO":999,"REV_AT_EPOCH":14574,"BSTAR":0.00010321236,"MEAN_MOTION_DOT":5.1e-7,"MEAN_MOTION_DDOT":0},{"OBJECT_NAME":"ONEWEB-0661","OBJECT_ID":"2023-029AB","EPOCH":"2026-03-05T04:25:53.399712","MEAN_MOTION":13.14503092,"ECCENTRICITY":0.00013288,"INCLINATION":87.8987,"RA_OF_ASC_NODE":310.502,"ARG_OF_PERICENTER":88.7285,"MEAN_ANOMALY":271.3997,"EPHEMERIS_TYPE":0,"CLASSIFICATION_TYPE":"U","NORAD_CAT_ID":55821,"ELEMENT_SET_NO":999,"REV_AT_EPOCH":14572,"BSTAR":-0.00016192119,"MEAN_MOTION_DOT":-4.7e-7,"MEAN_MOTION_DDOT":0},{"OBJECT_NAME":"ONEWEB-0662","OBJECT_ID":"2023-029AC","EPOCH":"2026-03-05T05:16:08.045184","MEAN_MOTION":13.14502487,"ECCENTRICITY":0.00014789,"INCLINATION":87.8989,"RA_OF_ASC_NODE":310.5026,"ARG_OF_PERICENTER":95.311,"MEAN_ANOMALY":264.8188,"EPHEMERIS_TYPE":0,"CLASSIFICATION_TYPE":"U","NORAD_CAT_ID":55822,"ELEMENT_SET_NO":999,"REV_AT_EPOCH":14577,"BSTAR":0.000562646,"MEAN_MOTION_DOT":2.21e-6,"MEAN_MOTION_DDOT":0}]
