ONEWEB-0643             
1 55807U 23029M   26064.24332277 -.00000171  00000+0 -49639-3 0  9993
2 55807  87.8990 310.4774 0002198  93.3210 266.8171 13.14502247145732
ONEWEB-0644             
1 55808U 23029N   26064.22451148  .00000134  00000+0  30130-3 0  9994
2 55808  87.9227 325.6972 0001931  89.5390 270.5964 13.19726344145198
ONEWEB-0645             
1 55809U 23029P   26064.24661466  .00000053  00000+0  99266-4 0  9999
2 55809  87.9229 325.6854 0001613 100.3956 259.7359 13.19725009145191
ONEWEB-0646             
1 55810U 23029Q   26064.18816549  .00000051  00000+0  94809-4 0  9994
2 55810  87.9237 325.6962 0001853  88.1430 271.9915 13.19727272145174
ONEWEB-0648             
1 55811U 23029R   26064.21160692  .00000298  00000+0  77023-3 0  9991
2 55811  87.8996 310.4483 0001786 114.4877 245.6439 13.14501700145731
ONEWEB-0649             
1 55812U 23029S   26064.21343867  .00000076  00000+0  15793-3 0  9999
2 55812  87.9238 325.6882 0001625  90.3779 269.7540 13.19725207145216
ONEWEB-0650             
1 55813U 23029T   26064.20870272  .00000079  00000+0  16401-3 0  9994
2 55813  87.9237 325.6921 0001907  93.2027 266.9324 13.19727470145180
ONEWEB-0652             
1 55814U 23029U   26064.19257775  .00000133  00000+0  32476-3 0  9991
2 55814  87.8990 310.4676 0001625  74.4768 285.6541 13.14502498145708
ONEWEB-0653             
1 55815U 23029V   26064.17671680 -.00000102  00000+0 -30924-3 0  9999
2 55815  87.8999 310.4611 0001476  77.2214 282.9081 13.14502505145739
ONEWEB-0654             
1 55816U 23029W   26064.17195847 -.00000106  00000+0 -32170-3 0  9995
2 55816  87.8990 310.4619 0001570  67.6535 292.4761 13.14502476145753
ONEWEB-0656             
1 55817U 23029X   26064.19001191  .00000060  00000+0  11508-3 0  9995
2 55817  87.9179 295.1930 0001504  70.2017 289.9278 13.20772327147422
ONEWEB-0657             
1 55818U 23029Y   26064.20397807  .00000124  00000+0  27820-3 0  9995
2 55818  87.9236 325.6922 0002264  67.2707 292.8665 13.19725882145190
ONEWEB-0658             
1 55819U 23029Z   26064.19923725  .00000133  00000+0  29958-3 0  9992
2 55819  87.9245 325.6599 0001963  90.6641 269.4716 13.19725954145202
ONEWEB-0660             
1 55820U 23029AA  26064.22588226  .00000051  00000+0  10321-3 0  9994
2 55820  87.8998 310.4374 0001461  95.6079 264.5217 13.14503342145745
ONEWEB-0661             
1 55821U 23029AB  26064.18464583 -.00000047  00000+0 -16192-3 0  9998
2 55821  87.8987 310.5020 0001328  88.7285 271.3997 13.14503092145728
ONEWEB-0662             
1 55822U 23029AC  26064.21953756  .00000221  00000+0  56265-3 0  9995
2 55822  87.8989 310.5026 0001478  95.3110 264.8188 13.14502487145775
